[{"OBJECT_NAME":"STARLINK-30507","OBJECT_ID":"2023-151U","EPOCH":"2026-03-09T03:02:09.742560","MEAN_MOTION":15.02538442,"ECCENTRICITY":0.00010305,"INCLINATION":43.0052,"RA_OF_ASC_NODE":355.017,"ARG_OF_PERICENTER":262.7137,"MEAN_ANOMALY":97.3588,"EPHEMERIS_TYPE":0,"CLASSIFICATION_TYPE":"U","NORAD_CAT_ID":57982,"ELEMENT_SET_NO":999,"REV_AT_EPOCH":13549,"BSTAR":2.891353e-6,"MEAN_MOTION_DOT":-1.65e-6,"MEAN_MOTION_DDOT":0},{"OBJECT_NAME":"SEDNA-1","OBJECT_ID":"2024-149DS","EPOCH":"2026-03-09T18:22:48.434304","MEAN_MOTION":15.05597965,"ECCENTRICITY":0.00083444,"INCLINATION":97.6673,"RA_OF_ASC_NODE":149.7617,"ARG_OF_PERICENTER":330.8481,"MEAN_ANOMALY":29.2278,"EPHEMERIS_TYPE":0,"CLASSIFICATION_TYPE":"U","NORAD_CAT_ID":60580,"ELEMENT_SET_NO":999,"REV_AT_EPOCH":8542,"BSTAR":0.00060833619,"MEAN_MOTION_DOT":8.721e-5,"MEAN_MOTION_DDOT":0}]
